STARLINK-5780           
1 57150U 23090BB  26075.76416566  .00002635  00000+0  17486-3 0  9997
2 57150  43.0008 222.6679 0001584 283.1065  76.9603 15.09511031151635
STARLINK-5776           
1 57151U 23090BC  26075.83335647  .00084831  00000+0  44639-2 0  9993
2 57151  43.0003 222.2869 0002142 254.7105 119.7274 15.14664569  5761
STARLINK-5879           
1 57153U 23090BE  26075.83335647  .00088146  00000+0  56474-2 0  9998
2 57153  43.0005 210.0097 0002307 266.7790 157.8187 15.07538734  5817
STARLINK-6108           
1 57155U 23090BG  26075.83335647  .00086464  00000+0  49034-2 0  9995
2 57155  43.0003 222.2305 0002376 268.1927 131.0861 15.11985119  5718
STARLINK-6137           
1 57156U 23090BH  26075.83335647  .00086183  00000+0  48772-2 0  9992
2 57156  43.0003 222.2666 0002483 265.1083 119.0964 15.12062034  5665
STARLINK-6290           
1 57328U 23099A   26075.83335647  .00089929  00000+0  56243-2 0  9995
2 57328  43.0013 210.3840 0002072 290.1436 245.3681 15.08413397  5669
STARLINK-6138           
1 57329U 23099B   26075.83335647  .00093792  00000+0  59730-2 0  9993
2 57329  43.0013 210.2753 0001192 303.2064 278.2083 15.07726180  5811
STARLINK-6212           
1 57330U 23099C   26075.83335647  .00093276  00000+0  59946-2 0  9991
2 57330  43.0018 210.3787 0001239 289.7556 249.7247 15.07393373  5710
STARLINK-6234           
1 57331U 23099D   26075.83335647  .00093669  00000+0  59043-2 0  9996
2 57331  43.0017 210.3318 0001387 302.4770 257.0820 15.08103334  5823
STARLINK-5831           
1 57332U 23099E   26075.83335647  .00093090  00000+0  60302-2 0  9995
2 57332  43.0009 210.3449 0001523 275.0487 277.3553 15.07102639  5769
STARLINK-5585           
1 57333U 23099F   26075.83335647  .00094801  00000+0  60269-2 0  9999
2 57333  43.0013 210.3114 0001142 289.0884 278.2820 15.07783278  5768
STARLINK-6316           
1 57335U 23099H   26075.83335647  .00127855  00000+0  50079-2 0  9995
2 57335  42.9991 208.6163 0001318 279.3602 285.1013 15.24589380  5669
STARLINK-6320           
1 57336U 23099J   26075.83335647  .00129802  00000+0  54651-2 0  9990
2 57336  42.9996 208.5196 0001311 262.7215 334.1146 15.22145503  5529
