
    {
      "objectName": "STARLINK-5780",
      "objectId": "2023-090BB",
      "noradId": 57150,
      "epochUtc": "2026-03-16T18:20:23.913024Z",
      "meanMotionRevPerDay": 15.09511031,
      "eccentricity": 0.0001584,
      "inclinationDeg": 43.0008,
      "raanDeg": 222.6679,
      "argPerigeeDeg": 283.1065,
      "meanAnomalyDeg": 76.9603,
      "bstar": 0.00017486,
      "meanMotionDot": 0.00002635,
      "meanMotionDdot": 0,
      "elementSetNo": 999,
      "revAtEpoch": 15163
    },
    {
      "objectName": "STARLINK-5776",
      "objectId": "2023-090BC",
      "noradId": 57151,
      "epochUtc": "2026-03-16T20:00:01.999008Z",
      "meanMotionRevPerDay": 15.14664569,
      "eccentricity": 0.0002142,
      "inclinationDeg": 43.0003,
      "raanDeg": 222.2869,
      "argPerigeeDeg": 254.7105,
      "meanAnomalyDeg": 119.7274,
      "bstar": 0.0044639,
      "meanMotionDot": 0.00084831,
      "meanMotionDdot": 0,
      "elementSetNo": 999,
      "revAtEpoch": 576
    },
    {
      "objectName": "STARLINK-5879",
      "objectId": "2023-090BE",
      "noradId": 57153,
      "epochUtc": "2026-03-16T20:00:01.999008Z",
      "meanMotionRevPerDay": 15.07538734,
      "eccentricity": 0.0002307,
      "inclinationDeg": 43.0005,
      "raanDeg": 210.0097,
      "argPerigeeDeg": 266.779,
      "meanAnomalyDeg": 157.8187,
      "bstar": 0.0056474,
      "meanMotionDot": 0.00088146,
      "meanMotionDdot": 0,
      "elementSetNo": 999,
      "revAtEpoch": 581
    },
    {
      "objectName": "STARLINK-6108",
      "objectId": "2023-090BG",
      "noradId": 57155,
      "epochUtc": "2026-03-16T20:00:01.999008Z",
      "meanMotionRevPerDay": 15.11985119,
      "eccentricity": 0.0002376,
      "inclinationDeg": 43.0003,
      "raanDeg": 222.2305,
      "argPerigeeDeg": 268.1927,
      "meanAnomalyDeg": 131.0861,
      "bstar": 0.0049034,
      "meanMotionDot": 0.00086464,
      "meanMotionDdot": 0,
      "elementSetNo": 999,
      "revAtEpoch": 571
    },
    {
      "objectName": "STARLINK-6137",
      "objectId": "2023-090BH",
      "noradId": 57156,
      "epochUtc": "2026-03-16T20:00:01.999008Z",
      "meanMotionRevPerDay": 15.12062034,
      "eccentricity": 0.0002483,
      "inclinationDeg": 43.0003,
      "raanDeg": 222.2666,
      "argPerigeeDeg": 265.1083,
      "meanAnomalyDeg": 119.0964,
      "bstar": 0.0048772,
      "meanMotionDot": 0.00086183,
      "meanMotionDdot": 0,
      "elementSetNo": 999,
      "revAtEpoch": 566
    },
    {
      "objectName": "STARLINK-6290",
      "objectId": "2023-099A",
      "noradId": 57328,
      "epochUtc": "2026-03-16T20:00:01.999008Z",
      "meanMotionRevPerDay": 15.08413397,
      "eccentricity": 0.0002072,
      "inclinationDeg": 43.0013,
      "raanDeg": 210.384,
      "argPerigeeDeg": 290.1436,
      "meanAnomalyDeg": 245.3681,
      "bstar": 0.0056243,
      "meanMotionDot": 0.00089929,
      "meanMotionDdot": 0,
      "elementSetNo": 999,
      "revAtEpoch": 566
    },
    {
      "objectName": "STARLINK-6138",
      "objectId": "2023-099B",
      "noradId": 57329,
      "epochUtc": "2026-03-16T20:00:01.999008Z",
      "meanMotionRevPerDay": 15.0772618,
      "eccentricity": 0.0001192,
      "inclinationDeg": 43.0013,
      "raanDeg": 210.2753,
      "argPerigeeDeg": 303.2064,
      "meanAnomalyDeg": 278.2083,
      "bstar": 0.005973,
      "meanMotionDot": 0.00093792,
      "meanMotionDdot": 0,
      "elementSetNo": 999,
      "revAtEpoch": 581
    },
    {
      "objectName": "STARLINK-6212",
      "objectId": "2023-099C",
      "noradId": 57330,
      "epochUtc": "2026-03-16T20:00:01.999008Z",
      "meanMotionRevPerDay": 15.07393373,
      "eccentricity": 0.0001239,
      "inclinationDeg": 43.0018,
      "raanDeg": 210.3787,
      "argPerigeeDeg": 289.7556,
      "meanAnomalyDeg": 249.7247,
      "bstar": 0.0059946,
      "meanMotionDot": 0.00093276,
      "meanMotionDdot": 0,
      "elementSetNo": 999,
      "revAtEpoch": 571
    },
    {
      "objectName": "STARLINK-6234",
      "objectId": "2023-099D",
      "noradId": 57331,
      "epochUtc": "2026-03-16T20:00:01.999008Z",
      "meanMotionRevPerDay": 15.08103334,
      "eccentricity": 0.0001387,
      "inclinationDeg": 43.0017,
      "raanDeg": 210.3318,
      "argPerigeeDeg": 302.477,
      "meanAnomalyDeg": 257.082,
      "bstar": 0.0059043,
      "meanMotionDot": 0.00093669,
      "meanMotionDdot": 0,
      "elementSetNo": 999,
      "revAtEpoch": 582
    },
    {
      "objectName": "STARLINK-5831",
      "objectId": "2023-099E",
      "noradId": 57332,
      "epochUtc": "2026-03-16T20:00:01.999008Z",
      "meanMotionRevPerDay": 15.07102639,
      "eccentricity": 0.0001523,
      "inclinationDeg": 43.0009,
      "raanDeg": 210.3449,
      "argPerigeeDeg": 275.0487,
      "meanAnomalyDeg": 277.3553,
      "bstar": 0.0060302,
      "meanMotionDot": 0.0009309,
      "meanMotionDdot": 0,
      "elementSetNo": 999,
      "revAtEpoch": 576
    },
    {
      "objectName": "STARLINK-5585",
      "objectId": "2023-099F",
      "noradId": 57333,
      "epochUtc": "2026-03-16T20:00:01.999008Z",
      "meanMotionRevPerDay": 15.07783278,
      "eccentricity": 0.0001142,
      "inclinationDeg": 43.0013,
      "raanDeg": 210.3114,
      "argPerigeeDeg": 289.0884,
      "meanAnomalyDeg": 278.282,
      "bstar": 0.0060269,
      "meanMotionDot": 0.00094801,
      "meanMotionDdot": 0,
      "elementSetNo": 999,
      "revAtEpoch": 576
    },
    {
      "objectName": "STARLINK-6316",
      "objectId": "2023-099H",
      "noradId": 57335,
      "epochUtc": "2026-03-16T20:00:01.999008Z",
      "meanMotionRevPerDay": 15.2458938,
      "eccentricity": 0.0001318,
      "inclinationDeg": 42.9991,
      "raanDeg": 208.6163,
      "argPerigeeDeg": 279.3602,
      "meanAnomalyDeg": 285.1013,
      "bstar": 0.0050079,
      "meanMotionDot": 0.00127855,
      "meanMotionDdot": 0,
      "elementSetNo": 999,
      "revAtEpoch": 566
    },
    {
      "objectName": "STARLINK-6320",
      "objectId": "2023-099J",
      "noradId": 57336,
      "epochUtc": "2026-03-16T20:00:01.999008Z",
      "meanMotionRevPerDay": 15.22145503,
      "eccentricity": 0.0001311,
      "inclinationDeg": 42.9996,
      "raanDeg": 208.5196,
      "argPerigeeDeg": 262.7215,
      "meanAnomalyDeg": 334.1146,
      "bstar": 0.0054651,
      "meanMotionDot": 0.00129802,
      "meanMotionDdot": 0,
      "elementSetNo": 999,
      "revAtEpoch": 552
    }